{
    "links": {
        "self": "http://www.neowsapp.com/rest/v1/neo/3604261?api_key=iIulBulltgU6a56xZRHN4H3l9WmuAYTsLGpBGhQ2"
    },
    "id": "3604261",
    "neo_reference_id": "3604261",
    "name": "(2012 KO1)",
    "designation": "2012 KO1",
    "nasa_jpl_url": "http://ssd.jpl.nasa.gov/sbdb.cgi?sstr=3604261",
    "absolute_magnitude_h": 23.8,
    "estimated_diameter": {
        "kilometers": {
            "estimated_diameter_min": 0.046190746,
            "estimated_diameter_max": 0.1032856481
        },
        "meters": {
            "estimated_diameter_min": 46.1907460282,
            "estimated_diameter_max": 103.2856480504
        },
        "miles": {
            "estimated_diameter_min": 0.0287015901,
            "estimated_diameter_max": 0.0641787064
        },
        "feet": {
            "estimated_diameter_min": 151.544447199,
            "estimated_diameter_max": 338.8636855496
        }
    },
    "is_potentially_hazardous_asteroid": false,
    "close_approach_data": [
        {
            "close_approach_date": "2012-04-28",
            "close_approach_date_full": "2012-Apr-28 18:31",
            "epoch_date_close_approach": 1335637860000,
            "relative_velocity": {
                "kilometers_per_second": "8.0405205569",
                "kilometers_per_hour": "28945.8740047996",
                "miles_per_hour": "17985.8404337045"
            },
            "miss_distance": {
                "astronomical": "0.1112225419",
                "lunar": "43.2655687991",
                "kilometers": "16638655.364225753",
                "miles": "10338781.0276832714"
            },
            "orbiting_body": "Earth"
        }
    ],
    "orbital_data": {
        "orbit_id": "5",
        "orbit_determination_date": "2017-04-06 08:49:47",
        "first_observation_date": "2012-05-17",
        "last_observation_date": "2012-05-21",
        "data_arc_in_days": 4,
        "observations_used": 19,
        "orbit_uncertainty": "9",
        "minimum_orbit_intersection": ".085045",
        "jupiter_tisserand_invariant": "3.522",
        "epoch_osculation": "2456067.5",
        "eccentricity": ".5056786016154365",
        "semi_major_axis": "2.15311774371765",
        "inclination": "5.294226192223542",
        "ascending_node_longitude": "59.29480642468756",
        "orbital_period": "1153.984822252093",
        "perihelion_distance": "1.064332173961125",
        "perihelion_argument": "135.9521308983722",
        "aphelion_distance": "3.241903313474175",
        "perihelion_time": "2456028.215866401540",
        "mean_anomaly": "12.25517686432461",
        "mean_motion": ".3119625085687273",
        "equinox": "J2000",
        "orbit_class": {
            "orbit_class_type": "AMO",
            "orbit_class_description": "Near-Earth asteroid orbits similar to that of 1221 Amor",
            "orbit_class_range": "1.017 AU < q (perihelion) < 1.3 AU"
        }
    },
    "is_sentry_object": false
}